[{"OBJECT_NAME":"STARLINK-2100","OBJECT_ID":"2021-005AH","EPOCH":"2026-03-09T22:00:01.999584","MEAN_MOTION":15.12103699,"ECCENTRICITY":0.00010124,"INCLINATION":53.0532,"RA_OF_ASC_NODE":30.5302,"ARG_OF_PERICENTER":95.6888,"MEAN_ANOMALY":202.9615,"EPHEMERIS_TYPE":0,"CLASSIFICATION_TYPE":"U","NORAD_CAT_ID":47380,"ELEMENT_SET_NO":999,"REV_AT_EPOCH":577,"BSTAR":0.078295115,"MEAN_MOTION_DOT":0.014974,"MEAN_MOTION_DDOT":0},{"OBJECT_NAME":"NESS","OBJECT_ID":"2023-155E","EPOCH":"2026-03-09T18:20:54.923712","MEAN_MOTION":15.26794015,"ECCENTRICITY":0.00068914,"INCLINATION":97.5941,"RA_OF_ASC_NODE":152.6141,"ARG_OF_PERICENTER":179.8776,"MEAN_ANOMALY":180.2465,"EPHEMERIS_TYPE":0,"CLASSIFICATION_TYPE":"U","NORAD_CAT_ID":58020,"ELEMENT_SET_NO":999,"REV_AT_EPOCH":13330,"BSTAR":0.00074047066,"MEAN_MOTION_DOT":0.00019469,"MEAN_MOTION_DDOT":0}]
